NORAD_CAT_ID,OBJECT_NAME,OBJECT_TYPE,EPOCH,MEAN_MOTION,ECCENTRICITY,INCLINATION,RA_OF_ASC_NODE,ARG_OF_PERICENTER,MEAN_ANOMALY,BSTAR,MEAN_MOTION_DOT,MEAN_MOTION_DDOT,TLE_LINE0,TLE_LINE1,TLE_LINE2,SEMIMAJOR_AXIS,PERIOD,APOGEE,PERIGEE,DECAYED
51881.0,STARLINK-3504,PAYLOAD,2024-08-12 12:55:16,15.08859725,0.0001686,53.217,56.5829,97.3616,262.7568,0.0016248,0.00025679,0.0,0 STARLINK-3504,1 51881U 22022AF  24225.53838598  .00025679  00000-0  16248-2 0  9997,2 51881  53.2170  56.5829 0001686  97.3616 262.7568 15.08859725136625,6917.82,95.436,540.851,538.519,0.0
51881.0,STARLINK-3504,PAYLOAD,2024-08-12 19:16:48,15.08890752,0.0002022,53.2167,55.3947,90.6582,269.4642,0.0029219,0.00046587,0.0,0 STARLINK-3504,1 51881U 22022AF  24225.80334035  .00046587  00000-0  29219-2 0  9997,2 51881  53.2167  55.3947 0002022  90.6582 269.4642 15.08890752136668,6917.725,95.434,540.989,538.192,0.0
51881.0,STARLINK-3504,PAYLOAD,2024-08-12 22:27:34,15.08916231,0.0001305,53.2183,54.8014,83.698,276.4161,0.0050265,0.00080795,0.0,0 STARLINK-3504,1 51881U 22022AF  24225.93581651  .00080795  00000-0  50265-2 0  9993,2 51881  53.2183  54.8014 0001305  83.6980 276.4161 15.08916231136689,6917.647,95.433,540.415,538.61,0.0
51881.0,STARLINK-3504,PAYLOAD,2024-08-13 23:53:48,15.08800269,0.0001581,53.2145,50.043,69.9753,290.1409,0.0017097,0.00026997,0.0,0 STARLINK-3504,1 51881U 22022AF  24226.99570360  .00026997  00000-0  17097-2 0  9995,2 51881  53.2145  50.0430 0001581  69.9753 290.1409 15.08800269136847,6918.002,95.44,540.961,538.773,0.0
51881.0,STARLINK-3504,PAYLOAD,2024-08-14 11:01:30,15.0886747,0.0001422,53.2164,47.9591,77.0374,283.0777,0.0031819,0.00050755,0.0,0 STARLINK-3504,1 51881U 22022AF  24227.45938109  .00050755  00000-0  31819-2 0  9993,2 51881  53.2164  47.9591 0001422  77.0374 283.0777 15.08867470136918,6917.796,95.436,540.645,538.678,0.0
51881.0,STARLINK-3504,PAYLOAD,2024-08-14 18:58:25,15.08843137,0.0001945,53.2203,46.4794,108.6598,251.4605,0.00029888,4.472e-05,0.0,0 STARLINK-3504,1 51881U 22022AF  24227.79057674  .00004472  00000-0  29888-3 0  9998,2 51881  53.2203  46.4794 0001945 108.6598 251.4605 15.08843137136968,6917.871,95.437,541.081,538.39,0.0
51881.0,STARLINK-3504,PAYLOAD,2024-08-15 04:30:44,15.08844691,0.0001675,53.2191,44.6918,93.2835,266.8349,-9.7406e-05,-1.838e-05,0.0,0 STARLINK-3504,1 51881U 22022AF  24228.18802054 -.00001838  00000-0 -97406-4 0  9999,2 51881  53.2191  44.6918 0001675  93.2835 266.8349 15.08844691137024,6917.866,95.437,540.89,538.572,0.0
51881.0,STARLINK-3504,PAYLOAD,2024-08-15 18:49:12,15.08867234,0.00012,53.2182,42.0128,81.6713,278.4415,0.00090449,0.00014147,0.0,0 STARLINK-3504,1 51881U 22022AF  24228.78417044  .00014147  00000-0  90449-3 0  9990,2 51881  53.2182  42.0128 0001200  81.6713 278.4415 15.08867234137110,6917.797,95.436,540.492,538.832,0.0
51881.0,STARLINK-3504,PAYLOAD,2024-08-16 04:21:30,15.08876225,0.0001054,53.2184,40.2288,77.849,282.262,0.00098619,0.00015458,0.0,0 STARLINK-3504,1 51881U 22022AF  24229.18160311  .00015458  00000-0  98619-3 0  9990,2 51881  53.2184  40.2288 0001054  77.8490 282.2620 15.08876225137172,6917.77,95.435,540.364,538.906,0.0
51881.0,STARLINK-3504,PAYLOAD,2024-08-16 20:15:21,15.08871193,0.000229,53.2173,37.2542,79.0724,281.0526,0.00071378,0.000111,0.0,0 STARLINK-3504,1 51881U 22022AF  24229.84399700  .00011100  00000-0  71378-3 0  9992,2 51881  53.2173  37.2542 0002290  79.0724 281.0526 15.08871193137278,6917.785,95.436,541.234,538.066,0.0
51881.0,STARLINK-3504,PAYLOAD,2024-08-17 20:06:08,15.088494,0.0001294,53.2175,32.7959,101.0536,259.0602,0.00073647,0.00011455,0.0,0 STARLINK-3504,1 51881U 22022AF  24230.83759284  .00011455  00000-0  73647-3 0  9994,2 51881  53.2175  32.7959 0001294 101.0536 259.0602 15.08849400137425,6917.852,95.437,540.612,538.821,0.0
51881.0,STARLINK-3504,PAYLOAD,2024-08-18 10:24:36,15.08844744,0.0001619,53.2165,30.1208,89.7321,270.3857,0.00032162,4.835e-05,0.0,0 STARLINK-3504,1 51881U 22022AF  24231.43375391  .00004835  00000-0  32162-3 0  9995,2 51881  53.2165  30.1208 0001619  89.7321 270.3857 15.08844744137512,6917.866,95.437,540.851,538.611,0.0
51881.0,STARLINK-3504,PAYLOAD,2024-08-18 18:21:31,15.08853135,0.0001403,53.2171,28.6339,92.7079,267.4074,0.00036612,5.546e-05,0.0,0 STARLINK-3504,1 51881U 22022AF  24231.76494976  .00005546  00000-0  36612-3 0  9996,2 51881  53.2171  28.6339 0001403  92.7079 267.4074 15.08853135137568,6917.84,95.437,540.676,538.735,0.0
51881.0,STARLINK-3504,PAYLOAD,2024-08-19 03:53:50,15.0884747,0.0001413,53.2181,26.8504,86.7033,273.4121,0.00020632,2.998e-05,0.0,0 STARLINK-3504,1 51881U 22022AF  24232.16239045  .00002998  00000-0  20632-3 0  9998,2 51881  53.2181  26.8504 0001413  86.7033 273.4121 15.08847470137629,6917.858,95.437,540.7,538.745,0.0
51881.0,STARLINK-3504,PAYLOAD,2024-08-20 03:44:37,15.08840057,0.0001224,53.2165,22.3879,104.369,255.7438,7.8853e-05,9.67e-06,0.0,0 STARLINK-3504,1 51881U 22022AF  24233.15599270  .00000967  00000-0  78853-4 0  9990,2 51881  53.2165  22.3879 0001224 104.3690 255.7438 15.08840057137777,6917.88,95.438,540.592,538.898,0.0
51881.0,STARLINK-3504,PAYLOAD,2024-08-20 14:52:19,15.08842323,0.0001398,53.2173,20.308,89.0485,271.0668,4.7298e-05,4.65e-06,0.0,0 STARLINK-3504,1 51881U 22022AF  24233.61967350  .00000465  00000-0  47298-4 0  9991,2 51881  53.2173  20.3080 0001398  89.0485 271.0668 15.08842323137843,6917.873,95.437,540.705,538.771,0.0
51881.0,STARLINK-3504,PAYLOAD,2024-08-21 13:07:44,15.088365,0.0001583,53.2181,16.144,96.0068,264.1105,8.8198e-05,1.116e-05,0.0,0 STARLINK-3504,1 51881U 22022AF  24234.54703820  .00001116  00000-0  88198-4 0  9992,2 51881  53.2181  16.1440 0001583  96.0068 264.1105 15.08836500137980,6917.891,95.438,540.851,538.661,0.0
51881.0,STARLINK-3504,PAYLOAD,2024-08-21 14:43:07,15.0883595,0.0001575,53.2184,15.8466,96.8749,263.2422,7.4645e-05,9e-06,0.0,0 STARLINK-3504,1 51881U 22022AF  24234.61327852  .00000900  00000-0  74645-4 0  9999,2 51881  53.2184  15.8466 0001575  96.8749 263.2422 15.08835950137993,6917.893,95.438,540.847,538.668,0.0
51881.0,STARLINK-3504,PAYLOAD,2024-08-21 19:29:16,15.0884299,0.000162,53.2187,14.9533,95.9871,264.1306,3.122e-05,2.09e-06,0.0,0 STARLINK-3504,1 51881U 22022AF  24234.81199727  .00000209  00000-0  31220-4 0  9993,2 51881  53.2187  14.9533 0001620  95.9871 264.1306 15.08842990138026,6917.871,95.437,540.857,538.616,0.0
